ONEWEB-0282             
1 49000U 21060AK  25308.29743502  .00000063  00000+0  13128-3 0  9998
2 49000  87.8996 273.5737 0002105  86.5633 273.5738 13.16594973210012
ONEWEB-0283             
1 49001U 21060AL  25308.28634721  .00000144  00000+0  34322-3 0  9999
2 49001  87.8995 273.5764 0001969  88.3986 271.7371 13.16593308210025
ONEWEB-0284             
1 49002U 21060AM  25308.20402216  .00000144  00000+0  34191-3 0  9998
2 49002  87.9001 273.5794 0002236  77.5737 282.5644 13.16594739209996
ONEWEB-0285             
1 49075U 21075A   25308.31313827  .00000463  00000+0  12525-2 0  9995
2 49075  87.8973  35.3312 0001825 101.1810 258.9523 13.12444436205715
ONEWEB-0286             
1 49076U 21075B   25308.29503888  .00000110  00000+0  27178-3 0  9991
2 49076  87.8967  35.3696 0001578  99.1329 260.9978 13.12444696205063
ONEWEB-0287             
1 49077U 21075C   25308.01592537  .00000346  00000+0  85768-3 0  9991
2 49077  87.9135  50.6392 0001401  88.8023 271.3269 13.17646942203976
ONEWEB-0288             
1 49078U 21075D   25308.27081858 -.00000382  00000+0 -10977-2 0  9990
2 49078  87.8976  35.3348 0001800  96.4428 263.6905 13.12440808205686
ONEWEB-0289             
1 49079U 21075E   25308.28240436  .00000018  00000+0  12802-4 0  9996
2 49079  87.9122  50.6057 0002075  93.8291 266.3078 13.17649928204580
ONEWEB-0290             
1 49080U 21075F   25308.02773049 -.00000027  00000+0 -10304-3 0  9997
2 49080  87.9128  50.6149 0002369  98.9559 261.1840 13.17649969203965
ONEWEB-0291             
1 49081U 21075G   25308.31628824  .00000063  00000+0  12953-3 0  9990
2 49081  87.9139  50.5637 0001690  88.3904 271.7421 13.17650213203991
ONEWEB-0293             
1 49082U 21075H   25308.18972209  .00000023  00000+0  25247-4 0  9992
2 49082  87.9133  50.6134 0001801  98.3431 261.7904 13.17650757204000
ONEWEB-0294             
1 49083U 21075J   25308.27730725 -.00000434  00000+0 -12423-2 0  9996
2 49083  87.8975  35.3340 0002157  92.5012 267.6363 13.12441875205075
ONEWEB-0295             
1 49084U 21075K   25308.26481552 -.00000010  00000+0 -58757-4 0  9999
2 49084  87.9125  50.6030 0001595  87.8877 272.2437 13.17648074203977
ONEWEB-0296             
1 49085U 21075L   25308.18162563  .00000009  00000+0 -11092-4 0  9997
2 49085  87.8980  35.3586 0001831  87.0572 273.0766 13.12442130205065
ONEWEB-0297             
1 49086U 21075M   25308.28866012 -.00000347  00000+0 -10005-2 0  9996
2 49086  87.8968  35.3714 0001704  99.7226 260.4095 13.12444066205683
ONEWEB-0298             
1 49087U 21075N   25308.26916998  .00000075  00000+0  16121-3 0  9996
2 49087  87.9131  50.5986 0001649 102.7814 257.3502 13.17650943204004
ONEWEB-0299             
1 49088U 21075P   25308.27072449  .00000017  00000+0  10959-4 0  9992
2 49088  87.9138  50.5567 0001558  97.2045 262.9264 13.17650311203982
