[{"OBJECT_NAME":"ONEWEB-0282","OBJECT_ID":"2021-060AK","EPOCH":"2025-11-04T07:08:18.385728","MEAN_MOTION":13.16594973,"ECCENTRICITY":0.00021058,"INCLINATION":87.8996,"RA_OF_ASC_NODE":273.5737,"ARG_OF_PERICENTER":86.5633,"MEAN_ANOMALY":273.5738,"EPHEMERIS_TYPE":0,"CLASSIFICATION_TYPE":"U","NORAD_CAT_ID":49000,"ELEMENT_SET_NO":999,"REV_AT_EPOCH":21001,"BSTAR":0.00013128373,"MEAN_MOTION_DOT":6.3e-7,"MEAN_MOTION_DDOT":0},{"OBJECT_NAME":"ONEWEB-0283","OBJECT_ID":"2021-060AL","EPOCH":"2025-11-04T06:52:20.398944","MEAN_MOTION":13.16593308,"ECCENTRICITY":0.00019691,"INCLINATION":87.8995,"RA_OF_ASC_NODE":273.5764,"ARG_OF_PERICENTER":88.3986,"MEAN_ANOMALY":271.7371,"EPHEMERIS_TYPE":0,"CLASSIFICATION_TYPE":"U","NORAD_CAT_ID":49001,"ELEMENT_SET_NO":999,"REV_AT_EPOCH":21002,"BSTAR":0.00034322292,"MEAN_MOTION_DOT":1.44e-6,"MEAN_MOTION_DDOT":0},{"OBJECT_NAME":"ONEWEB-0284","OBJECT_ID":"2021-060AM","EPOCH":"2025-11-04T04:53:47.514624","MEAN_MOTION":13.16594739,"ECCENTRICITY":0.00022368,"INCLINATION":87.9001,"RA_OF_ASC_NODE":273.5794,"ARG_OF_PERICENTER":77.5737,"MEAN_ANOMALY":282.5644,"EPHEMERIS_TYPE":0,"CLASSIFICATION_TYPE":"U","NORAD_CAT_ID":49002,"ELEMENT_SET_NO":999,"REV_AT_EPOCH":20999,"BSTAR":0.00034190816,"MEAN_MOTION_DOT":1.44e-6,"MEAN_MOTION_DDOT":0},{"OBJECT_NAME":"ONEWEB-0285","OBJECT_ID":"2021-075A","EPOCH":"2025-11-04T07:30:55.146528","MEAN_MOTION":13.12444436,"ECCENTRICITY":0.00018258,"INCLINATION":87.8973,"RA_OF_ASC_NODE":35.3312,"ARG_OF_PERICENTER":101.181,"MEAN_ANOMALY":258.9523,"EPHEMERIS_TYPE":0,"CLASSIFICATION_TYPE":"U","NORAD_CAT_ID":49075,"ELEMENT_SET_NO":999,"REV_AT_EPOCH":20571,"BSTAR":0.0012525186,"MEAN_MOTION_DOT":4.63e-6,"MEAN_MOTION_DDOT":0},{"OBJECT_NAME":"ONEWEB-0286","OBJECT_ID":"2021-075B","EPOCH":"2025-11-04T07:04:51.359232","MEAN_MOTION":13.12444696,"ECCENTRICITY":0.00015786,"INCLINATION":87.8967,"RA_OF_ASC_NODE":35.3696,"ARG_OF_PERICENTER":99.1329,"MEAN_ANOMALY":260.9978,"EPHEMERIS_TYPE":0,"CLASSIFICATION_TYPE":"U","NORAD_CAT_ID":49076,"ELEMENT_SET_NO":999,"REV_AT_EPOCH":20506,"BSTAR":0.00027178093,"MEAN_MOTION_DOT":1.1e-6,"MEAN_MOTION_DDOT":0},{"OBJECT_NAME":"ONEWEB-0287","OBJECT_ID":"2021-075C","EPOCH":"2025-11-04T00:22:55.951968","MEAN_MOTION":13.17646942,"ECCENTRICITY":0.00014016,"INCLINATION":87.9135,"RA_OF_ASC_NODE":50.6392,"ARG_OF_PERICENTER":88.8023,"MEAN_ANOMALY":271.3269,"EPHEMERIS_TYPE":0,"CLASSIFICATION_TYPE":"U","NORAD_CAT_ID":49077,"ELEMENT_SET_NO":999,"REV_AT_EPOCH":20397,"BSTAR":0.00085767975,"MEAN_MOTION_DOT":3.46e-6,"MEAN_MOTION_DDOT":0},{"OBJECT_NAME":"ONEWEB-0288","OBJECT_ID":"2021-075D","EPOCH":"2025-11-04T06:29:58.725312","MEAN_MOTION":13.12440808,"ECCENTRICITY":0.00018,"INCLINATION":87.8976,"RA_OF_ASC_NODE":35.3348,"ARG_OF_PERICENTER":96.4428,"MEAN_ANOMALY":263.6905,"EPHEMERIS_TYPE":0,"CLASSIFICATION_TYPE":"U","NORAD_CAT_ID":49078,"ELEMENT_SET_NO":999,"REV_AT_EPOCH":20568,"BSTAR":-0.0010976639,"MEAN_MOTION_DOT":-3.82e-6,"MEAN_MOTION_DDOT":0},{"OBJECT_NAME":"ONEWEB-0289","OBJECT_ID":"2021-075E","EPOCH":"2025-11-04T06:46:39.736704","MEAN_MOTION":13.17649928,"ECCENTRICITY":0.00020758,"INCLINATION":87.9122,"RA_OF_ASC_NODE":50.6057,"ARG_OF_PERICENTER":93.8291,"MEAN_ANOMALY":266.3078,"EPHEMERIS_TYPE":0,"CLASSIFICATION_TYPE":"U","NORAD_CAT_ID":49079,"ELEMENT_SET_NO":999,"REV_AT_EPOCH":20458,"BSTAR":1.2802308e-5,"MEAN_MOTION_DOT":1.8e-7,"MEAN_MOTION_DDOT":0},{"OBJECT_NAME":"ONEWEB-0290","OBJECT_ID":"2021-075F","EPOCH":"2025-11-04T00:39:55.914336","MEAN_MOTION":13.17649969,"ECCENTRICITY":0.00023699,"INCLINATION":87.9128,"RA_OF_ASC_NODE":50.6149,"ARG_OF_PERICENTER":98.9559,"MEAN_ANOMALY":261.184,"EPHEMERIS_TYPE":0,"CLASSIFICATION_TYPE":"U","NORAD_CAT_ID":49080,"ELEMENT_SET_NO":999,"REV_AT_EPOCH":20396,"BSTAR":-0.00010304152,"MEAN_MOTION_DOT":-2.7e-7,"MEAN_MOTION_DDOT":0},{"OBJECT_NAME":"ONEWEB-0291","OBJECT_ID":"2021-075G","EPOCH":"2025-11-04T07:35:27.303936","MEAN_MOTION":13.17650213,"ECCENTRICITY":0.00016904,"INCLINATION":87.9139,"RA_OF_ASC_NODE":50.5637,"ARG_OF_PERICENTER":88.3904,"MEAN_ANOMALY":271.7421,"EPHEMERIS_TYPE":0,"CLASSIFICATION_TYPE":"U","NORAD_CAT_ID":49081,"ELEMENT_SET_NO":999,"REV_AT_EPOCH":20399,"BSTAR":0.00012952605,"MEAN_MOTION_DOT":6.3e-7,"MEAN_MOTION_DDOT":0},{"OBJECT_NAME":"ONEWEB-0293","OBJECT_ID":"2021-075H","EPOCH":"2025-11-04T04:33:11.988576","MEAN_MOTION":13.17650757,"ECCENTRICITY":0.00018011,"INCLINATION":87.9133,"RA_OF_ASC_NODE":50.6134,"ARG_OF_PERICENTER":98.3431,"MEAN_ANOMALY":261.7904,"EPHEMERIS_TYPE":0,"CLASSIFICATION_TYPE":"U","NORAD_CAT_ID":49082,"ELEMENT_SET_NO":999,"REV_AT_EPOCH":20400,"BSTAR":2.5246986e-5,"MEAN_MOTION_DOT":2.3e-7,"MEAN_MOTION_DDOT":0},{"OBJECT_NAME":"ONEWEB-0294","OBJECT_ID":"2021-075J","EPOCH":"2025-11-04T06:39:19.346400","MEAN_MOTION":13.12441875,"ECCENTRICITY":0.00021576,"INCLINATION":87.8975,"RA_OF_ASC_NODE":35.334,"ARG_OF_PERICENTER":92.5012,"MEAN_ANOMALY":267.6363,"EPHEMERIS_TYPE":0,"CLASSIFICATION_TYPE":"U","NORAD_CAT_ID":49083,"ELEMENT_SET_NO":999,"REV_AT_EPOCH":20507,"BSTAR":-0.0012423004,"MEAN_MOTION_DOT":-4.34e-6,"MEAN_MOTION_DDOT":0},{"OBJECT_NAME":"ONEWEB-0295","OBJECT_ID":"2021-075K","EPOCH":"2025-11-04T06:21:20.060928","MEAN_MOTION":13.17648074,"ECCENTRICITY":0.00015952,"INCLINATION":87.9125,"RA_OF_ASC_NODE":50.603,"ARG_OF_PERICENTER":87.8877,"MEAN_ANOMALY":272.2437,"EPHEMERIS_TYPE":0,"CLASSIFICATION_TYPE":"U","NORAD_CAT_ID":49084,"ELEMENT_SET_NO":999,"REV_AT_EPOCH":20397,"BSTAR":-5.8756741e-5,"MEAN_MOTION_DOT":-1.0e-7,"MEAN_MOTION_DDOT":0},{"OBJECT_NAME":"ONEWEB-0296","OBJECT_ID":"2021-075L","EPOCH":"2025-11-04T04:21:32.454432","MEAN_MOTION":13.1244213,"ECCENTRICITY":0.00018316,"INCLINATION":87.898,"RA_OF_ASC_NODE":35.3586,"ARG_OF_PERICENTER":87.0572,"MEAN_ANOMALY":273.0766,"EPHEMERIS_TYPE":0,"CLASSIFICATION_TYPE":"U","NORAD_CAT_ID":49085,"ELEMENT_SET_NO":999,"REV_AT_EPOCH":20506,"BSTAR":-1.1092474e-5,"MEAN_MOTION_DOT":9.0e-8,"MEAN_MOTION_DDOT":0},{"OBJECT_NAME":"ONEWEB-0297","OBJECT_ID":"2021-075M","EPOCH":"2025-11-04T06:55:40.234368","MEAN_MOTION":13.12444066,"ECCENTRICITY":0.00017049,"INCLINATION":87.8968,"RA_OF_ASC_NODE":35.3714,"ARG_OF_PERICENTER":99.7226,"MEAN_ANOMALY":260.4095,"EPHEMERIS_TYPE":0,"CLASSIFICATION_TYPE":"U","NORAD_CAT_ID":49086,"ELEMENT_SET_NO":999,"REV_AT_EPOCH":20568,"BSTAR":-0.0010005343,"MEAN_MOTION_DOT":-3.47e-6,"MEAN_MOTION_DDOT":0},{"OBJECT_NAME":"ONEWEB-0298","OBJECT_ID":"2021-075N","EPOCH":"2025-11-04T06:27:36.286272","MEAN_MOTION":13.17650943,"ECCENTRICITY":0.00016494,"INCLINATION":87.9131,"RA_OF_ASC_NODE":50.5986,"ARG_OF_PERICENTER":102.7814,"MEAN_ANOMALY":257.3502,"EPHEMERIS_TYPE":0,"CLASSIFICATION_TYPE":"U","NORAD_CAT_ID":49087,"ELEMENT_SET_NO":999,"REV_AT_EPOCH":20400,"BSTAR":0.00016121058,"MEAN_MOTION_DOT":7.5e-7,"MEAN_MOTION_DDOT":0},{"OBJECT_NAME":"ONEWEB-0299","OBJECT_ID":"2021-075P","EPOCH":"2025-11-04T06:29:50.595936","MEAN_MOTION":13.17650311,"ECCENTRICITY":0.00015581,"INCLINATION":87.9138,"RA_OF_ASC_NODE":50.5567,"ARG_OF_PERICENTER":97.2045,"MEAN_ANOMALY":262.9264,"EPHEMERIS_TYPE":0,"CLASSIFICATION_TYPE":"U","NORAD_CAT_ID":49088,"ELEMENT_SET_NO":999,"REV_AT_EPOCH":20398,"BSTAR":1.0958775e-5,"MEAN_MOTION_DOT":1.7e-7,"MEAN_MOTION_DDOT":0}]
